NORAD_CAT_ID,OBJECT_NAME,OBJECT_TYPE,EPOCH,MEAN_MOTION,ECCENTRICITY,INCLINATION,RA_OF_ASC_NODE,ARG_OF_PERICENTER,MEAN_ANOMALY,BSTAR,MEAN_MOTION_DOT,MEAN_MOTION_DDOT,TLE_LINE0,TLE_LINE1,TLE_LINE2,SEMIMAJOR_AXIS,PERIOD,APOGEE,PERIGEE,DECAYED
52123.0,STARLINK-3725,PAYLOAD,2023-11-14 06:30:55,15.08859062,0.0001628,53.2167,268.7706,100.6491,259.4684,0.00037906,5.753e-05,0.0,0 STARLINK-3725,1 52123U 22029AM  23318.27147351  .00005753  00000-0  37906-3 0  9993,2 52123  53.2167 268.7706 0001628 100.6491 259.4684 15.08859062 93153,6917.822,95.436,540.813,538.561,0.0
52123.0,STARLINK-3725,PAYLOAD,2023-11-14 20:49:24,15.08839946,0.0001923,53.2164,266.0956,92.3098,267.8115,8.8904e-05,1.127e-05,0.0,0 STARLINK-3725,1 52123U 22029AM  23318.86764275  .00001127  00000-0  88904-4 0  9994,2 52123  53.2164 266.0956 0001923  92.3098 267.8115 15.08839946 93247,6917.881,95.438,541.076,538.415,0.0
52123.0,STARLINK-3725,PAYLOAD,2023-11-15 03:10:56,15.08843193,0.0001409,53.2169,264.9047,95.9151,264.2001,0.00020509,2.978e-05,0.0,0 STARLINK-3725,1 52123U 22029AM  23319.13259977  .00002978  00000-0  20509-3 0  9994,2 52123  53.2169 264.9047 0001409  95.9151 264.2001 15.08843193 93286,6917.871,95.437,540.71,538.761,0.0
52123.0,STARLINK-3725,PAYLOAD,2023-11-16 03:01:44,15.08846699,0.0001611,53.2178,260.4483,96.7327,263.3849,0.00058682,9.065e-05,0.0,0 STARLINK-3725,1 52123U 22029AM  23320.12620410  .00009065  00000-0  58682-3 0  9996,2 52123  53.2178 260.4483 0001611  96.7327 263.3849 15.08846699 93431,6917.86,95.437,540.839,538.61,0.0
52123.0,STARLINK-3725,PAYLOAD,2023-11-17 02:52:31,15.08844789,0.0001781,53.218,255.9867,92.2265,267.8931,0.00018598,2.673e-05,0.0,0 STARLINK-3725,1 52123U 22029AM  23321.11980333  .00002673  00000-0  18598-3 0  9999,2 52123  53.2180 255.9867 0001781  92.2265 267.8931 15.08844789 93584,6917.866,95.437,540.963,538.499,0.0
52123.0,STARLINK-3725,PAYLOAD,2023-11-17 12:24:49,15.08839951,0.0001643,53.2172,254.2042,95.0089,265.109,2.6305e-05,1.31e-06,0.0,0 STARLINK-3725,1 52123U 22029AM  23321.51724429  .00000131  00000-0  26305-4 0  9998,2 52123  53.2172 254.2042 0001643  95.0089 265.1090 15.08839951 93643,6917.881,95.438,540.882,538.609,0.0
52123.0,STARLINK-3725,PAYLOAD,2023-11-18 02:43:18,15.08835273,0.0001678,53.2181,251.5283,100.6605,259.4576,-6.0658e-05,-1.253e-05,0.0,0 STARLINK-3725,1 52123U 22029AM  23322.11340833 -.00001253  00000-0 -60658-4 0  9995,2 52123  53.2181 251.5283 0001678 100.6605 259.4576 15.08835273 93733,6917.895,95.438,540.921,538.599,0.0
52123.0,STARLINK-3725,PAYLOAD,2023-11-18 12:15:36,15.0884704,0.0001471,53.2173,249.7439,96.4487,263.6672,0.00022045,3.223e-05,0.0,0 STARLINK-3725,1 52123U 22029AM  23322.51084430  .00003223  00000-0  22045-3 0  9991,2 52123  53.2173 249.7439 0001471  96.4487 263.6672 15.08847040 93792,6917.859,95.437,540.741,538.706,0.0
52123.0,STARLINK-3725,PAYLOAD,2023-11-19 02:34:04,15.08868174,0.0001528,53.2172,247.0669,92.3162,267.8005,0.00059987,9.279e-05,0.0,0 STARLINK-3725,1 52123U 22029AM  23323.10699419  .00009279  00000-0  59987-3 0  9998,2 52123  53.2172 247.0669 0001528  92.3162 267.8005 15.08868174 93882,6917.794,95.436,540.716,538.602,0.0
52123.0,STARLINK-3725,PAYLOAD,2023-11-19 12:06:23,15.08858733,0.0001966,53.2164,245.2832,82.9089,277.2126,0.00033466,5.045e-05,0.0,0 STARLINK-3725,1 52123U 22029AM  23323.50443552  .00005045  00000-0  33466-3 0  9998,2 52123  53.2164 245.2832 0001966  82.9089 277.2126 15.08858733 93940,6917.823,95.436,541.048,538.328,0.0
52123.0,STARLINK-3725,PAYLOAD,2023-11-20 02:24:51,15.08838147,0.0001554,53.2157,242.6069,82.0939,278.0229,0.00010896,1.446e-05,0.0,0 STARLINK-3725,1 52123U 22029AM  23324.10059842  .00001446  00000-0  10896-3 0  9993,2 52123  53.2157 242.6069 0001554  82.0939 278.0229 15.08838147 94034,6917.886,95.438,540.826,538.676,0.0
52123.0,STARLINK-3725,PAYLOAD,2023-11-20 11:57:11,15.08832858,0.000157,53.2149,240.8227,79.4889,280.628,0.0009322,0.00014576,0.0,0 STARLINK-3725,1 52123U 22029AM  23324.49804413  .00014576  00000-0  93220-3 0  9997,2 52123  53.2149 240.8227 0001570  79.4889 280.6280 15.08832858 94098,6917.902,95.438,540.853,538.681,0.0
52123.0,STARLINK-3725,PAYLOAD,2023-11-21 03:51:02,15.08851804,0.000155,53.2146,237.8483,83.8573,276.2596,0.000976,0.00015284,0.0,0 STARLINK-3725,1 52123U 22029AM  23325.16044297  .00015284  00000-0  97600-3 0  9991,2 52123  53.2146 237.8483 0001550  83.8573 276.2596 15.08851804 94196,6917.844,95.437,540.782,538.637,0.0
52123.0,STARLINK-3725,PAYLOAD,2023-11-21 18:09:32,15.08801374,0.0001984,53.2146,235.1723,85.4701,274.6518,-0.00015655,-2.776e-05,0.0,0 STARLINK-3725,1 52123U 22029AM  23325.75662889 -.00002776  00000-0 -15655-3 0  9993,2 52123  53.2146 235.1723 0001984  85.4701 274.6518 15.08801374 94289,6917.998,95.44,541.236,538.491,0.0
52123.0,STARLINK-3725,PAYLOAD,2023-11-22 03:41:50,15.08845441,0.0001342,53.2148,233.3869,93.9985,266.116,0.001856,0.00029378,0.0,0 STARLINK-3725,1 52123U 22029AM  23326.15406227  .00029378  00000-0  18560-2 0  9992,2 52123  53.2148 233.3869 0001342  93.9985 266.1160 15.08845441 94347,6917.864,95.437,540.657,538.8,0.0
52123.0,STARLINK-3725,PAYLOAD,2023-11-22 21:11:05,15.08869918,0.000156,53.2148,230.1147,98.5716,261.5453,0.0019459,0.00030842,0.0,0 STARLINK-3725,1 52123U 22029AM  23326.88270090  .00030842  00000-0  19459-2 0  9995,2 52123  53.2148 230.1147 0001560  98.5716 261.5453 15.08869918 94457,6917.789,95.436,540.733,538.575,0.0
52123.0,STARLINK-3725,PAYLOAD,2023-11-22 22:46:28,15.08874248,0.0001505,53.215,229.8171,90.743,269.3735,0.0017922,0.00028377,0.0,0 STARLINK-3725,1 52123U 22029AM  23326.94893909  .00028377  00000-0  17922-2 0  9995,2 52123  53.2150 229.8171 0001505  90.7430 269.3735 15.08874248 94460,6917.776,95.435,540.682,538.6,0.0
52123.0,STARLINK-3725,PAYLOAD,2023-11-23 17:51:05,15.08860898,0.0001663,53.2163,226.2486,122.0132,238.1021,0.00025068,3.706e-05,0.0,0 STARLINK-3725,1 52123U 22029AM  23327.74380963  .00003706  00000-0  25068-3 0  9995,2 52123  53.2163 226.2486 0001663 122.0132 238.1021 15.08860898 94588,6917.817,95.436,540.832,538.531,0.0
52123.0,STARLINK-3725,PAYLOAD,2023-11-23 22:37:14,15.08838124,0.0001493,53.2162,225.3577,115.6563,244.4583,-0.00052813,-8.683e-05,0.0,0 STARLINK-3725,1 52123U 22029AM  23327.94253036 -.00008683  00000-0 -52813-3 0  9996,2 52123  53.2162 225.3577 0001493 115.6563 244.4583 15.08838124 94619,6917.886,95.438,540.784,538.718,0.0
52123.0,STARLINK-3725,PAYLOAD,2023-11-24 03:23:24,15.08833636,0.0001819,53.2166,224.4648,127.2644,232.8514,8.7455e-05,1.104e-05,0.0,0 STARLINK-3725,1 52123U 22029AM  23328.14125362  .00001104  00000-0  87455-4 0  9999,2 52123  53.2166 224.4648 0001819 127.2644 232.8514 15.08833636 94644,6917.9,95.438,541.023,538.506,0.0
52123.0,STARLINK-3725,PAYLOAD,2023-11-24 22:28:02,15.08836477,0.0001568,53.2164,220.8964,118.0152,242.0999,0.00046187,7.07e-05,0.0,0 STARLINK-3725,1 52123U 22029AM  23328.93614016  .00007070  00000-0  46187-3 0  9999,2 52123  53.2164 220.8964 0001568 118.0152 242.0999 15.08836477 94765,6917.891,95.438,540.841,538.671,0.0
52123.0,STARLINK-3725,PAYLOAD,2023-11-25 00:03:25,15.08838845,0.000166,53.2162,220.5988,119.879,240.2367,0.00054946,8.467e-05,0.0,0 STARLINK-3725,1 52123U 22029AM  23329.00237996  .00008467  00000-0  54946-3 0  9999,2 52123  53.2162 220.5988 0001660 119.8790 240.2367 15.08838845 94777,6917.884,95.438,540.897,538.601,0.0
52123.0,STARLINK-3725,PAYLOAD,2023-11-25 22:18:48,15.08876221,0.0001559,53.2153,216.437,118.9986,241.1162,0.0014256,0.00022496,0.0,0 STARLINK-3725,1 52123U 22029AM  23329.92973161  .00022496  00000-0  14256-2 0  9998,2 52123  53.2153 216.4370 0001559 118.9986 241.1162 15.08876221 94919,6917.77,95.435,540.713,538.556,0.0
52123.0,STARLINK-3725,PAYLOAD,2023-11-26 18:58:50,15.08838566,0.0001143,53.2143,212.5725,115.0635,245.0476,0.00011307,1.512e-05,0.0,0 STARLINK-3725,1 52123U 22029AM  23330.79085779  .00001512  00000-0  11307-3 0  9995,2 52123  53.2143 212.5725 0001143 115.0635 245.0476 15.08838566 95043,6917.885,95.438,540.54,538.959,0.0
52123.0,STARLINK-3725,PAYLOAD,2023-11-26 22:09:36,15.08813042,0.0001245,53.2144,211.9776,101.3651,258.7481,-0.00071522,-0.00011644,0.0,0 STARLINK-3725,1 52123U 22029AM  23330.92334017 -.00011644  00000-0 -71522-3 0  9996,2 52123  53.2144 211.9776 0001245 101.3651 258.7481 15.08813042 95063,6917.963,95.439,540.689,538.967,0.0
52123.0,STARLINK-3725,PAYLOAD,2023-11-27 01:20:23,15.08812256,0.0001288,53.2148,211.3834,85.6939,274.42,-0.00040032,-6.648e-05,0.0,0 STARLINK-3725,1 52123U 22029AM  23331.05582557 -.00006648  00000-0 -40032-3 0  9995,2 52123  53.2148 211.3834 0001288  85.6939 274.4200 15.08812256 95088,6917.965,95.439,540.721,538.939,0.0
52123.0,STARLINK-3725,PAYLOAD,2023-11-27 22:00:24,15.08839022,0.0001254,53.2154,207.5156,84.3712,275.7424,0.00079483,0.00012384,0.0,0 STARLINK-3725,1 52123U 22029AM  23331.91695026  .00012384  00000-0  79483-3 0  9990,2 52123  53.2154 207.5156 0001254  84.3712 275.7424 15.08839022 95214,6917.883,95.438,540.616,538.881,0.0
52123.0,STARLINK-3725,PAYLOAD,2023-11-27 23:35:47,15.08847319,0.0001319,53.2151,207.2185,79.9972,280.1169,0.0010863,0.00017046,0.0,0 STARLINK-3725,1 52123U 22029AM  23331.98319021  .00017046  00000-0  10863-2 0  9991,2 52123  53.2151 207.2185 0001319  79.9972 280.1169 15.08847319 95225,6917.858,95.437,540.635,538.811,0.0
52123.0,STARLINK-3725,PAYLOAD,2023-11-28 20:15:47,15.08861447,0.0001673,53.2146,203.3536,63.1243,296.992,0.00051499,7.922e-05,0.0,0 STARLINK-3725,1 52123U 22029AM  23332.84430290  .00007922  00000-0  51499-3 0  9992,2 52123  53.2146 203.3536 0001673  63.1243 296.9920 15.08861447 95357,6917.815,95.436,540.837,538.522,0.0
52123.0,STARLINK-3725,PAYLOAD,2023-11-28 21:51:10,15.08862285,0.0001641,53.2149,203.0564,63.9953,296.1208,0.00055932,8.63e-05,0.0,0 STARLINK-3725,1 52123U 22029AM  23332.91054206  .00008630  00000-0  55932-3 0  9992,2 52123  53.2149 203.0564 0001641  63.9953 296.1208 15.08862285 95362,6917.812,95.436,540.812,538.542,0.0
